[Satellite]
VERSION=1.1
NAME=SWISSCUBE
NICKNAME=SWISSCUBE
TLE1=1 35932U 09051B   17186.20956039  .00000106  00000-0  35085-4 0  9996
TLE2=2 35932  98.4980 325.0379 0007554 186.4163 173.6939 14.56021753412909
